IRIDIUM 33 DEB          
1 35618U 97051QQ  26201.89631782  .00000749  00000+0  17509-3 0  9994
2 35618  86.3377 257.1487 0027552   1.8807 358.2498 14.53125645685901
IRIDIUM 33 DEB          
1 35620U 97051QS  26202.76078716  .00005722  00000+0  15655-2 0  9991
2 35620  86.3856 123.8953 0125654 252.4892 106.2545 14.42481794631489
IRIDIUM 33 DEB          
1 35622U 97051QU  26201.31759380  .00098516  00000+0  30572-2 0  9994
2 35622  86.1840 153.1239 0014267 124.4348  27.6818 15.32902894906883
IRIDIUM 33 DEB          
1 35625U 97051QX  26201.49760169  .00002053  00000+0  71512-3 0  9994
2 35625  86.1882 286.5052 0102696 208.1704 167.3986 14.32037770691842
IRIDIUM 33 DEB          
1 35628U 97051RA  26202.48996308  .00004555  00000+0  74195-3 0  9992
2 35628  86.3534 270.3196 0008179 290.1364  69.8972 14.70805663896883
IRIDIUM 33 DEB          
1 35631U 97051RD  26202.67649336  .00000458  00000+0  11786-3 0  9998
2 35631  86.3660 285.8057 0019137 103.4933  49.5526 14.47849522903939
IRIDIUM 33 DEB          
1 35680U 97051RJ  26198.01239676  .00000934  00000+0  36422-3 0  9999
2 35680  86.1010 285.5646 0144353 310.3077 171.4330 14.23243679637755
IRIDIUM 33 DEB          
1 35744U 97051RX  26202.50677904  .00004181  00000+0  63322-3 0  9997
2 35744  86.3263 225.4084 0021921 148.9092 211.3428 14.73802223905801
IRIDIUM 33 DEB          
1 35797U 97051SF  26198.39642367  .00004943  00000+0  52479-3 0  9998
2 35797  86.3318 229.8683 0013693 113.7403 246.5261 14.88775814905587
IRIDIUM 33 DEB          
1 35806U 97051SQ  26199.54412509  .00001864  00000+0  38739-3 0  9992
2 35806  86.3491 284.5425 0015060  55.9188 304.3449 14.59532540894997
IRIDIUM 33 DEB          
1 35809U 97051ST  26201.38609129  .00003955  00000+0  51664-3 0  9992
2 35809  86.3238 234.8860 0011597 186.1098 173.9984 14.80202480900520
IRIDIUM 33 DEB          
1 35846U 97051SW  26200.31901741  .00000881  00000+0  25180-3 0  9999
2 35846  86.3771 325.5150 0018745 165.6691 194.5046 14.43950095744824
IRIDIUM 33 DEB          
1 35848U 97051SY  26201.92443464  .00006433  00000+0  77316-3 0  9999
2 35848  86.3856 276.6264 0009974 143.1927 216.9983 14.83790371699505
IRIDIUM 33 DEB          
1 35850U 97051TA  26201.84285631  .00005872  00000+0  70459-3 0  9990
2 35850  86.3452 243.6290 0011376 139.0509 221.1571 14.83831950746167
IRIDIUM 33 DEB          
1 35915U 97051TY  26201.84172156  .00007179  00000+0  80619-3 0  9990
2 35915  86.3394 241.8138 0012914 137.0702 223.1533 14.86569238113503
IRIDIUM 33 DEB          
1 35918U 97051UB  26201.67241392  .00002007  00000+0  47999-3 0  9992
2 35918  86.4037 341.2810 0027340 150.2107 224.9480 14.52919989883990
IRIDIUM 33 DEB          
1 35929U 97051UN  26200.75567278  .00024476  00000+0  11182-2 0  9994
2 35929  86.3391 207.4841 0005912 289.0191  71.0412 15.20441322910888
IRIDIUM 33 DEB          
1 36011U 97051US  26202.57553419  .00000904  00000+0  26919-3 0  9996
2 36011  86.3414 300.5389 0017752 206.4179 210.5043 14.41988887677225
IRIDIUM 33 DEB          
1 36012U 97051UT  26201.48550569  .00002459  00000+0  88168-3 0  9990
2 36012  86.4420 218.6910 0215526 280.7760  76.9235 14.21503274686041
IRIDIUM 33 DEB          
1 36028U 97051VK  26200.72975682  .00012125  00000+0  81677-3 0  9999
2 36028  86.3152 202.7057 0012788 347.0824  13.0082 15.06517125904104
IRIDIUM 33 DEB          
1 36080U 97051VM  26201.49168861  .00000691  00000+0  18223-3 0  9997
2 36080  86.3185 272.1664 0018695 146.3546 213.8848 14.47451221505922
IRIDIUM 33 DEB          
1 36083U 97051VQ  26202.55287055  .00000928  00000+0  26514-3 0  9990
2 36083  86.3439 299.0448 0025246 211.2651 148.7050 14.43971606886354
IRIDIUM 33 DEB          
1 36390U 97051VU  26200.72818323  .00002288  00000+0  32434-3 0  9995
2 36390  86.2897 198.7696 0031797 125.2606 235.1596 14.76217434694906
IRIDIUM 33 DEB          
1 36483U 97051VZ  26202.61156563  .00001123  00000+0  30591-3 0  9998
2 36483  86.3818 317.9055 0011351 113.4013 246.8384 14.46567416683381
IRIDIUM 33 DEB          
1 36490U 97051WG  26202.46113351  .00006990  00000+0  89075-3 0  9995
2 36490  86.3607 270.4127 0003349  69.5182 290.6399 14.81394885897471
IRIDIUM 33 DEB          
1 36493U 97051WK  26201.93094793  .00003205  00000+0  55438-3 0  9999
2 36493  86.3546 273.5876 0007644 325.1564  34.9149 14.68081443777464
IRIDIUM 33 DEB          
1 36497U 97051WP  26199.15253479  .00004272  00000+0  75251-3 0  9991
2 36497  86.1555 152.1440 0049300  96.3404 264.3428 14.66530899688350
IRIDIUM 33 DEB          
1 37136U 97051XG  26201.38106332  .00000581  00000+0  21786-3 0  9999
2 37136  86.1724 240.8652 0076879   2.3607 357.7932 14.28386329676339
IRIDIUM 33 DEB          
1 37548U 97051XH  26201.56841385  .00001821  00000+0  43615-3 0  9993
2 37548  86.3526 307.5856 0025317 170.9791 189.1875 14.52840347687227
IRIDIUM 33 DEB          
1 37550U 97051XK  26202.52361253  .00005180  00000+0  85329-3 0  9994
2 37550  86.3754 285.7428 0005464  94.2908 265.8933 14.70351434895743
IRIDIUM 33 DEB          
1 37562U 97051XX  26202.55689113  .00003232  00000+0  68796-3 0  9993
2 37562  86.3748 307.1550 0025773  82.6488 293.5533 14.58530285895454
IRIDIUM 33 DEB          
1 37565U 97051YA  26201.51361058  .00000847  00000+0  20229-3 0  9994
2 37565  86.3469 273.7559 0014743  70.1638 290.1156 14.52457696690262
IRIDIUM 33 DEB          
1 38017U 97051YD  26202.07186150  .00010497  00000+0  23938-2 0  9998
2 38017  86.3316  69.8893 0079328  88.8414 272.1879 14.53774135645992
IRIDIUM 33 DEB          
1 38022U 97051YJ  26188.54918981  .00002086  00000+0  61185-3 0  9996
2 38022  86.2675 285.7484 0046097  86.5651 274.0821 14.42802459721740
IRIDIUM 33 DEB          
1 38028U 97051YQ  26201.45023271  .00000654  00000+0  17410-3 0  9998
2 38028  86.3230 264.7012 0030081 111.7406 248.7003 14.46790809686719
IRIDIUM 33 DEB          
1 38228U 97051ZC  26200.08319780  .00000416  00000+0  15774-3 0  9998
2 38228  86.2962 315.6314 0063171 205.5485 334.9881 14.27627297878969
IRIDIUM 33 DEB          
1 38241U 97051ZR  26201.89422366  .00001324  00000+0  29502-3 0  9991
2 38241  86.3201 253.3452 0005082  62.1458 298.0264 14.56175888634035
IRIDIUM 33 DEB          
1 38474U 97051AAB 26200.94691407  .00000829  00000+0  20061-3 0  9998
2 38474  86.3419 274.4518 0027655  75.9498 284.4779 14.51653048684979
IRIDIUM 33 DEB          
1 38477U 97051AAE 26196.80540311  .00001388  00000+0  10564-2 0  9994
2 38477  86.4076  25.9418 0394209 333.3934  24.7454 13.62184259576045
IRIDIUM 33 DEB          
1 39777U 97051AAJ 26201.91157894  .00004092  00000+0  80021-3 0  9998
2 39777  85.9582  67.6329 0056034 157.0268 203.3468 14.61633505633969
IRIDIUM 33 DEB          
1 39778U 97051AAK 26202.57304363  .00001984  00000+0  44698-3 0  9994
2 39778  86.3786 307.2336 0006723  21.3625 338.7862 14.55931112639046
IRIDIUM 33 DEB          
1 39781U 97051AAN 26198.65887560  .00002682  00000+0  97914-3 0  9991
2 39781  86.3792 168.3338 0162739 299.7912 240.3209 14.25643865111922
IRIDIUM 33 DEB          
1 40996U 97051ABJ 26202.91834582  .00049468  00000+0  26083-2 0  9993
2 40996  86.3445 256.3865 0001029 218.8486 267.5340 15.15360689658172
IRIDIUM 33 DEB          
1 40998U 97051ABL 26196.11417916  .00000731  00000+0  20036-3 0  9990
2 40998  86.3846 322.0422 0009670  90.3168  33.3456 14.45819658 97787
IRIDIUM 33 DEB          
1 46435U 97051ABN 26201.99193793  .00002097  00000+0  52705-3 0  9994
2 46435  86.2711  98.3345 0197108 273.2244 100.2029 14.39776949110804
IRIDIUM 33 DEB          
1 46734U 97051ABR 26200.45837391  .00001061  00000+0  30711-3 0  9998
2 46734  86.2596 266.7132 0036754 333.0121  39.4765 14.43230268661647
IRIDIUM 33 DEB          
1 46965U 97051ABX 26195.40991978  .00001241  00000+0  24417-3 0  9990
2 46965  86.3319 245.7928 0016957 324.7912  53.5037 14.61741836653889
IRIDIUM 33 DEB          
1 46972U 97051ACE 26203.04998095  .00001361  00000+0  33455-3 0  9990
2 46972  86.3899 304.0739 0011548  85.7866  36.3477 14.51593907647829
IRIDIUM 33 DEB          
1 46974U 97051ACG 26200.19574921  .00005278  00000+0  13277-2 0  9993
2 46974  86.3011   9.5041 0088213 178.6378 181.5084 14.48716942606670
IRIDIUM 33 DEB          
1 46979U 97051ACM 26201.54537085  .00055315  00000+0  28461-2 0  9996
2 46979  86.3180 304.2407 0019810 159.6546 200.5489 15.16029323387286
